NORAD_CAT_ID,OBJECT_NAME,OBJECT_TYPE,EPOCH,MEAN_MOTION,ECCENTRICITY,INCLINATION,RA_OF_ASC_NODE,ARG_OF_PERICENTER,MEAN_ANOMALY,BSTAR,MEAN_MOTION_DOT,MEAN_MOTION_DDOT,TLE_LINE0,TLE_LINE1,TLE_LINE2,SEMIMAJOR_AXIS,PERIOD,APOGEE,PERIGEE,DECAYED
53424.0,STARLINK-4532,PAYLOAD,2022-08-31 14:00:01,15.73193285,0.0001169,53.2191,142.179,95.7764,168.2831,-0.00018956,-0.00027129,0.0,0 STARLINK-4532,1 53424U 22097AN  22243.58334491 -.00027129  00000-0 -18956-3 0  9993,2 53424  53.2191 142.1790 0001169  95.7764 168.2831 15.73193285  1307,6727.9140000000025,91.534,350.566,348.99300000000005,0.0
53424.0,STARLINK-4532,PAYLOAD,2022-08-31 22:00:00,15.73160324,0.0001409999999999,53.2192,140.5309,89.3427,263.6221,1.5533e-05,1.557e-05,0.0,0 STARLINK-4532,1 53424U 22097AN  22243.91667824  .00001557  00000-0  15533-4 0  9993,2 53424  53.2192 140.5309 0001410  89.3427 263.6221 15.73160324  1301,6728.0080000000025,91.535,350.82199999999995,348.925,0.0
53424.0,STARLINK-4532,PAYLOAD,2022-09-01 12:00:00,15.73173915,0.0001294,53.219,137.6436,94.9065,323.6179,0.00045123,0.00063113,0.0,0 STARLINK-4532,1 53424U 22097AN  22244.50001157  .00063113  00000-0  45123-3 0  9993,2 53424  53.2190 137.6436 0001294  94.9065 323.6179 15.73173915  3948,6727.97,91.535,350.705,348.964,0.0
53424.0,STARLINK-4532,PAYLOAD,2022-09-01 14:00:01,15.73179128,0.0001294,53.2187,137.2308,96.5146,74.3104,0.00063487,0.00089352,0.0,0 STARLINK-4532,1 53424U 22097AN  22244.58335648  .00089352  00000-0  63487-3 0  9992,2 53424  53.2187 137.2308 0001294  96.5146  74.3104 15.73179128  1304,6727.955,91.534,350.69,348.949,0.0
53424.0,STARLINK-4532,PAYLOAD,2022-09-01 22:00:00,15.73245442,0.0001315,53.2187,135.5831,90.5023,169.197,0.00013259,0.00018064,0.0,0 STARLINK-4532,1 53424U 22097AN  22244.91667824  .00018064  00000-0  13259-3 0  9997,2 53424  53.2187 135.5831 0001315  90.5023 169.1970 15.73245442  1305,6727.766,91.531,350.515,348.746,0.0
53424.0,STARLINK-4532,PAYLOAD,2022-09-02 04:00:00,15.73218725,0.0001203,53.2186,134.3468,84.2128,152.203,0.00055878,0.00078601,0.0,0 STARLINK-4532,1 53424U 22097AN  22245.16667824  .00078601  00000-0  55878-3 0  9991,2 53424  53.2186 134.3468 0001203  84.2128 152.2030 15.73218725  4047,6727.842,91.532,350.516,348.897,0.0
53424.0,STARLINK-4532,PAYLOAD,2022-09-02 12:00:02,15.73258069,0.0001103,53.219,132.695,97.5443,227.9311,-0.00037202,-0.00052633,0.0,0 STARLINK-4532,1 53424U 22097AN  22245.50002315 -.00052633  00000-0 -37202-3 0  9997,2 53424  53.2190 132.6950 0001103  97.5443 227.9311 15.73258069  4097,6727.73,91.53,350.337,348.853,0.0
53424.0,STARLINK-4532,PAYLOAD,2022-09-02 14:00:01,15.73232437,0.0001094,53.2189,132.2823,98.4533,339.2102,-0.00024088,-0.00034334,0.0,0 STARLINK-4532,1 53424U 22097AN  22245.58334491 -.00034334  00000-0 -24088-3 0  9994,2 53424  53.2189 132.2823 0001094  98.4533 339.2102 15.73232437  1306,6727.803000000001,91.531,350.404,348.932,0.0
53424.0,STARLINK-4532,PAYLOAD,2022-09-02 22:00:01,15.73196321,0.0001195,53.2191,130.6343,88.3012,78.3904,-9.4187e-05,-0.00013814,0.0,0 STARLINK-4532,1 53424U 22097AN  22245.91668981 -.00013814  00000-0 -94187-4 0  9993,2 53424  53.2191 130.6343 0001195  88.3012  78.3904 15.73196321  1302,6727.906,91.533,350.575,348.967,0.0
53424.0,STARLINK-4532,PAYLOAD,2022-09-03 04:00:00,15.73172265,0.0001185,53.219,129.3981,83.478,59.8391,0.00054037,0.00075813,0.0,0 STARLINK-4532,1 53424U 22097AN  22246.16667824  .00075813  00000-0  54037-3 0  9990,2 53424  53.2190 129.3981 0001185  83.4780  59.8391 15.73172265  4208,6727.974,91.535,350.63699999999994,349.042,0.0
53424.0,STARLINK-4532,PAYLOAD,2022-09-03 14:00:01,15.73212352,0.0001114,53.219,127.334,98.8867,245.6106,0.000673,0.00094954,0.0,0 STARLINK-4532,1 53424U 22097AN  22246.58334491  .00094954  00000-0  67300-3 0  9991,2 53424  53.2190 127.3340 0001114  98.8867 245.6106 15.73212352  1302,6727.86,91.532,350.474,348.975,0.0
53424.0,STARLINK-4532,PAYLOAD,2022-09-03 20:00:01,15.73308993,9.96e-05,53.2191,126.0983,94.782,226.4367,-0.00063294,-0.00088925,0.0,0 STARLINK-4532,1 53424U 22097AN  22246.83334491 -.00088925  00000-0 -63294-3 0  9990,2 53424  53.2191 126.0983 0000996  94.7820 226.4367 15.73308993  4309,6727.584,91.527,350.12,348.779,0.0
53424.0,STARLINK-4532,PAYLOAD,2022-09-03 22:00:00,15.73301721,9.58e-05,53.2189,125.6863,90.366,343.112,-0.0006934,-0.00097234,0.0,0 STARLINK-4532,1 53424U 22097AN  22246.91667824 -.00097234  00000-0 -69340-3 0  9999,2 53424  53.2189 125.6863 0000958  90.3660 343.1120 15.73301721  1303,6727.605,91.527,350.115,348.826,0.0
53424.0,STARLINK-4532,PAYLOAD,2022-09-04 12:00:00,15.73243191,0.0001010999999999,53.2192,122.7983,97.0899,42.1307,-0.0006017,-0.00084374,0.0,0 STARLINK-4532,1 53424U 22097AN  22247.50001157 -.00084374  00000-0 -60170-3 0  9999,2 53424  53.2192 122.7983 0001011  97.0899  42.1307 15.73243191  4411,6727.772,91.531,350.31699999999995,348.957,0.0
53424.0,STARLINK-4532,PAYLOAD,2022-09-04 14:00:01,15.732092499999998,0.0001135,53.2193,122.3855,97.8429,153.6926,-0.00028597,-0.00040575,0.0,0 STARLINK-4532,1 53424U 22097AN  22247.58335648 -.00040575  00000-0 -28597-3 0  9994,2 53424  53.2193 122.3855 0001135  97.8429 153.6926 15.73209250  1308,6727.869000000002,91.533,350.497,348.97,0.0
53424.0,STARLINK-4532,PAYLOAD,2022-09-04 16:00:00,15.73215925,0.0001187,53.2195,121.9734,99.0286,264.6923,-2.9876e-05,-4.813e-05,0.0,0 STARLINK-4532,1 53424U 22097AN  22247.66667824 -.00004813  00000-0 -29876-4 0  9994,2 53424  53.2195 121.9734 0001187  99.0286 264.6923 15.73215925  4436,6727.85,91.532,350.51300000000015,348.916,0.0
53424.0,STARLINK-4532,PAYLOAD,2022-09-04 20:00:01,15.73232506,0.0001161,53.2196,121.1499,93.5219,134.6696,-0.00048795,-0.00068637,0.0,0 STARLINK-4532,1 53424U 22097AN  22247.83334491 -.00068637  00000-0 -48795-3 0  9998,2 53424  53.2196 121.1499 0001161  93.5219 134.6696 15.73232506  1304,6727.802,91.531,350.449,348.886,0.0
53424.0,STARLINK-4532,PAYLOAD,2022-09-05 14:00:01,15.73227625,0.0001179,53.2195,117.4377,97.7903,60.5164,-0.00042329,-0.00059675,0.0,0 STARLINK-4532,1 53424U 22097AN  22248.58334491 -.00059675  00000-0 -42329-3 0  9990,2 53424  53.2195 117.4377 0001179  97.7903  60.5164 15.73227625  1304,6727.816,91.532,350.475,348.88800000000015,0.0
53424.0,STARLINK-4532,PAYLOAD,2022-09-05 20:00:01,15.73202843,0.0001217999999999,53.2194,116.2022,90.7091,44.3063,-0.00065415,-0.00091444,0.0,0 STARLINK-4532,1 53424U 22097AN  22248.83334491 -.00091444  00000-0 -65415-3 0  9999,2 53424  53.2194 116.2022 0001218  90.7091  44.3063 15.73202843  4623,6727.887,91.533,350.57199999999995,348.93300000000005,0.0
53424.0,STARLINK-4532,PAYLOAD,2022-09-05 22:00:00,15.73171583,0.0001268,53.2192,115.7903,86.2699,160.97899999999996,-0.00033763,-0.00047678,0.0,0 STARLINK-4532,1 53424U 22097AN  22248.91667824 -.00047678  00000-0 -33763-3 0  9998,2 53424  53.2192 115.7903 0001268  86.2699 160.9790 15.73171583  1302,6727.976,91.535,350.694,348.98800000000006,0.0
53424.0,STARLINK-4532,PAYLOAD,2022-09-06 12:00:00,15.73108612,0.0001047,53.219,112.9026,98.3293,214.3655,0.0006917999999999,0.00097216,0.0,0 STARLINK-4532,1 53424U 22097AN  22249.50001157  .00097216  00000-0  69180-3 0  9998,2 53424  53.2190 112.9026 0001047  98.3293 214.3655 15.73108612  4720,6728.156,91.538,350.725,349.316,0.0
53424.0,STARLINK-4532,PAYLOAD,2022-09-06 14:00:01,15.73129801,0.0001094999999999,53.2191,112.4902,99.8193,325.0817,0.00058819,0.00082493,0.0,0 STARLINK-4532,1 53424U 22097AN  22249.58334491  .00082493  00000-0  58819-3 0  9994,2 53424  53.2191 112.4902 0001095  99.8193 325.0817 15.73129801  1301,6728.095,91.537,350.69699999999995,349.224,0.0
53424.0,STARLINK-4532,PAYLOAD,2022-09-06 22:00:00,15.73210153,9.76e-05,53.2188,110.8429,85.046,68.7417,-0.00044229,-0.00062259,0.0,0 STARLINK-4532,1 53424U 22097AN  22249.91667824 -.00062259  00000-0 -44229-3 0  9990,2 53424  53.2188 110.8429 0000976  85.0460  68.7417 15.73210153  1302,6727.866,91.533,350.38800000000015,349.075,0.0
53424.0,STARLINK-4532,PAYLOAD,2022-09-07 04:00:00,15.73164729,7.59e-05,53.2185,109.6059,79.2705,51.2085,0.00019339,0.00026566,0.0,0 STARLINK-4532,1 53424U 22097AN  22250.16667824  .00026566  00000-0  19339-3 0  9992,2 53424  53.2185 109.6059 0000759  79.2705  51.2085 15.73164729  4836,6727.996,91.535,350.371,349.35,0.0
53424.0,STARLINK-4532,PAYLOAD,2022-09-07 12:00:00,15.73172554,6.92e-05,53.2184,107.9547,98.9751,120.4162,0.00076005,0.00107292,0.0,0 STARLINK-4532,1 53424U 22097AN  22250.50001157  .00107292  00000-0  76005-3 0  9990,2 53424  53.2184 107.9547 0000692  98.9751 120.4162 15.73172554  4888,6727.973000000001,91.535,350.30400000000014,349.37300000000016,0.0
53424.0,STARLINK-4532,PAYLOAD,2022-09-07 14:00:01,15.73196817,7.57e-05,53.2185,107.5425,99.5282,232.088,0.00064063,0.00090246,0.0,0 STARLINK-4532,1 53424U 22097AN  22250.58334491  .00090246  00000-0  64063-3 0  9999,2 53424  53.2185 107.5425 0000757  99.5282 232.0880 15.73196817  1307,6727.904,91.533,350.279,349.26,0.0
53424.0,STARLINK-4532,PAYLOAD,2022-09-07 20:00:01,15.73274506,7.7e-05,53.2182,106.307,84.2237,224.168,-0.00034029,-0.00048253,0.0,0 STARLINK-4532,1 53424U 22097AN  22250.83335648 -.00048253  00000-0 -34029-3 0  9994,2 53424  53.2182 106.3070 0000770  84.2237 224.1680 15.73274506  4937,6727.683000000001,91.529,350.066,349.03,0.0
53424.0,STARLINK-4532,PAYLOAD,2022-09-07 22:00:00,15.73276738,8.48e-05,53.218,105.8941,79.4722,341.1033,-0.00044374,-0.00062635,0.0,0 STARLINK-4532,1 53424U 22097AN  22250.91667824 -.00062635  00000-0 -44374-3 0  9991,2 53424  53.2180 105.8941 0000848  79.4722 341.1033 15.73276738  1306,6727.676,91.529,350.112,348.971,0.0
53424.0,STARLINK-4532,PAYLOAD,2022-09-08 04:00:00,15.73226825,9.42e-05,53.2177,104.6578,77.2667,320.0055,-8.7838e-05,-0.00012942,0.0,0 STARLINK-4532,1 53424U 22097AN  22251.16667824 -.00012942  00000-0 -87838-4 0  9998,2 53424  53.2177 104.6578 0000942  77.2667 320.0055 15.73226825  4983,6727.819,91.532,350.31699999999995,349.05,0.0
